{
    "links": {
        "self": "http://www.neowsapp.com/rest/v1/neo/54075996?api_key=iIulBulltgU6a56xZRHN4H3l9WmuAYTsLGpBGhQ2"
    },
    "id": "54075996",
    "neo_reference_id": "54075996",
    "name": "(2020 UX3)",
    "designation": "2020 UX3",
    "nasa_jpl_url": "http://ssd.jpl.nasa.gov/sbdb.cgi?sstr=54075996",
    "absolute_magnitude_h": 24.672,
    "estimated_diameter": {
        "kilometers": {
            "estimated_diameter_min": 0.0309139839,
            "estimated_diameter_max": 0.0691257695
        },
        "meters": {
            "estimated_diameter_min": 30.9139839141,
            "estimated_diameter_max": 69.1257694872
        },
        "miles": {
            "estimated_diameter_min": 0.0192090531,
            "estimated_diameter_max": 0.0429527485
        },
        "feet": {
            "estimated_diameter_min": 101.4238349846,
            "estimated_diameter_max": 226.7905895644
        }
    },
    "is_potentially_hazardous_asteroid": false,
    "close_approach_data": [
        {
            "close_approach_date": "2020-10-31",
            "close_approach_date_full": "2020-Oct-31 02:24",
            "epoch_date_close_approach": 1604111040000,
            "relative_velocity": {
                "kilometers_per_second": "16.1548630613",
                "kilometers_per_hour": "58157.5070207092",
                "miles_per_hour": "36136.8131818401"
            },
            "miss_distance": {
                "astronomical": "0.0342845437",
                "lunar": "13.3366874993",
                "kilometers": "5128894.711441919",
                "miles": "3186947.3929757222"
            },
            "orbiting_body": "Earth"
        },
        {
            "close_approach_date": "2022-04-20",
            "close_approach_date_full": "2022-Apr-20 14:52",
            "epoch_date_close_approach": 1650466320000,
            "relative_velocity": {
                "kilometers_per_second": "14.1554115774",
                "kilometers_per_hour": "50959.4816786011",
                "miles_per_hour": "31664.2401574619"
            },
            "miss_distance": {
                "astronomical": "0.1845920272",
                "lunar": "71.8062985808",
                "kilometers": "27614574.088102064",
                "miles": "17158900.6695499232"
            },
            "orbiting_body": "Earth"
        }
    ],
    "orbital_data": {
        "orbit_id": "7",
        "orbit_determination_date": "2020-11-04 05:23:48",
        "first_observation_date": "2020-10-19",
        "last_observation_date": "2020-11-02",
        "data_arc_in_days": 14,
        "observations_used": 32,
        "orbit_uncertainty": "8",
        "minimum_orbit_intersection": ".0318379",
        "jupiter_tisserand_invariant": "5.540",
        "epoch_osculation": "2459145.5",
        "eccentricity": ".3536697447578985",
        "semi_major_axis": "1.094047222273457",
        "inclination": "23.95096696761546",
        "ascending_node_longitude": "215.4973829280549",
        "orbital_period": "417.9771386560283",
        "perihelion_distance": ".7071158204189154",
        "perihelion_argument": "282.4567509604724",
        "aphelion_distance": "1.480978624127998",
        "perihelion_time": "2459221.203781551806",
        "mean_anomaly": "294.7970048163851",
        "mean_motion": ".8612911250542337",
        "equinox": "J2000",
        "orbit_class": {
            "orbit_class_type": "APO",
            "orbit_class_description": "Near-Earth asteroid orbits which cross the Earth’s orbit similar to that of 1862 Apollo",
            "orbit_class_range": "a (semi-major axis) > 1.0 AU; q (perihelion) < 1.017 AU"
        }
    },
    "is_sentry_object": false
}